{
  "type": "Feature",
  "properties": {"ADMIN": "Pakistan", "ISO_A3": "PAK"},
  "geometry": {
    "type": "Polygon",
    "coordinates": [[
      [61.2,25.1],[62.9,25.3],[64.1,25.1],[66.3,24.9],[67.5,24.0],
      [68.8,24.2],[69.6,25.3],[70.6,25.7],[71.1,27.0],[71.8,27.7],
      [72.4,29.0],[73.4,30.5],[74.5,31.9],[75.1,32.8],[74.7,34.3],
      [73.9,35.3],[72.8,36.7],[71.0,36.5],[70.2,35.0],[69.0,34.4],
      [67.9,33.7],[66.3,32.7],[65.1,31.4],[63.9,30.3],[62.5,28.4],
      [61.4,27.1],[61.2,25.1]
    ]]
  }
}
